CCSDS_OMM_VERS = 2.0
CREATION_DATE  = 
ORIGINATOR     = 

OBJECT_NAME    = YOTSUBA-KULOVER
OBJECT_ID      = 1998-067XN
CENTER_NAME    = EARTH
REF_FRAME      = TEME
TIME_SYSTEM    = UTC
MEAN_ELEMENT_THEORY = SGP/SGP4

EPOCH          = 2026-03-01T08:23:37.382208
MEAN_MOTION    = 15.76940610
ECCENTRICITY   = .0006112
INCLINATION    = 51.6222
RA_OF_ASC_NODE = 100.4331
ARG_OF_PERICENTER = 19.8048
MEAN_ANOMALY   = 340.3188

EPHEMERIS_TYPE = 0
CLASSIFICATION_TYPE = U
NORAD_CAT_ID   = 65941
ELEMENT_SET_NO = 999
REV_AT_EPOCH   = 2218
BSTAR          = .10771E-2
MEAN_MOTION_DOT = .181603E-2
MEAN_MOTION_DDOT = 0

CCSDS_OMM_VERS = 2.0
CREATION_DATE  = 
ORIGINATOR     = 

OBJECT_NAME    = BOTAN
OBJECT_ID      = 1998-067XP
CENTER_NAME    = EARTH
REF_FRAME      = TEME
TIME_SYSTEM    = UTC
MEAN_ELEMENT_THEORY = SGP/SGP4

EPOCH          = 2026-03-01T07:53:39.334272
MEAN_MOTION    = 16.13419316
ECCENTRICITY   = .0006842
INCLINATION    = 51.6093
RA_OF_ASC_NODE = 93.3995
ARG_OF_PERICENTER = 39.1940
MEAN_ANOMALY   = 320.9569

EPHEMERIS_TYPE = 0
CLASSIFICATION_TYPE = U
NORAD_CAT_ID   = 65942
ELEMENT_SET_NO = 999
REV_AT_EPOCH   = 2227
BSTAR          = .17297E-2
MEAN_MOTION_DOT = .1991374E-1
MEAN_MOTION_DDOT = .37933E-2

CCSDS_OMM_VERS = 2.0
CREATION_DATE  = 
ORIGINATOR     = 

OBJECT_NAME    = E-KAGAKU-1
OBJECT_ID      = 1998-067XQ
CENTER_NAME    = EARTH
REF_FRAME      = TEME
TIME_SYSTEM    = UTC
MEAN_ELEMENT_THEORY = SGP/SGP4

EPOCH          = 2026-03-01T11:30:22.237056
MEAN_MOTION    = 15.76747517
ECCENTRICITY   = .000631
INCLINATION    = 51.6239
RA_OF_ASC_NODE = 99.8138
ARG_OF_PERICENTER = 28.4787
MEAN_ANOMALY   = 331.6556

EPHEMERIS_TYPE = 0
CLASSIFICATION_TYPE = U
NORAD_CAT_ID   = 65943
ELEMENT_SET_NO = 999
REV_AT_EPOCH   = 2220
BSTAR          = .10418E-2
MEAN_MOTION_DOT = .173992E-2
MEAN_MOTION_DDOT = 0

CCSDS_OMM_VERS = 2.0
CREATION_DATE  = 
ORIGINATOR     = 

OBJECT_NAME    = HRC MONOBLOCK CAMERA
OBJECT_ID      = 1998-067XR
CENTER_NAME    = EARTH
REF_FRAME      = TEME
TIME_SYSTEM    = UTC
MEAN_ELEMENT_THEORY = SGP/SGP4

EPOCH          = 2026-03-01T12:13:48.830880
MEAN_MOTION    = 15.61210914
ECCENTRICITY   = .0003276
INCLINATION    = 51.6277
RA_OF_ASC_NODE = 106.7869
ARG_OF_PERICENTER = 57.4959
MEAN_ANOMALY   = 302.6350

EPHEMERIS_TYPE = 0
CLASSIFICATION_TYPE = U
NORAD_CAT_ID   = 66052
ELEMENT_SET_NO = 999
REV_AT_EPOCH   = 2111
BSTAR          = .60088E-3
MEAN_MOTION_DOT = .51704E-3
MEAN_MOTION_DDOT = 0

CCSDS_OMM_VERS = 2.0
CREATION_DATE  = 
ORIGINATOR     = 

OBJECT_NAME    = HTV-X1
OBJECT_ID      = 2025-241A
CENTER_NAME    = EARTH
REF_FRAME      = TEME
TIME_SYSTEM    = UTC
MEAN_ELEMENT_THEORY = SGP/SGP4

EPOCH          = 2026-03-01T10:42:24.882912
MEAN_MOTION    = 15.48380101
ECCENTRICITY   = .0008284
INCLINATION    = 51.6323
RA_OF_ASC_NODE = 113.1104
ARG_OF_PERICENTER = 145.6657
MEAN_ANOMALY   = 214.4868

EPHEMERIS_TYPE = 0
CLASSIFICATION_TYPE = U
NORAD_CAT_ID   = 66174
ELEMENT_SET_NO = 999
REV_AT_EPOCH   = 55477
BSTAR          = .18913E-3
MEAN_MOTION_DOT = .9769E-4
MEAN_MOTION_DDOT = 0

CCSDS_OMM_VERS = 2.0
CREATION_DATE  = 
ORIGINATOR     = 

OBJECT_NAME    = SZ-21 MODULE
OBJECT_ID      = 2025-246C
CENTER_NAME    = EARTH
REF_FRAME      = TEME
TIME_SYSTEM    = UTC
MEAN_ELEMENT_THEORY = SGP/SGP4

EPOCH          = 2026-02-28T14:01:25.580640
MEAN_MOTION    = 15.67747367
ECCENTRICITY   = .0001436
INCLINATION    = 41.4737
RA_OF_ASC_NODE = 259.3806
ARG_OF_PERICENTER = 285.8647
MEAN_ANOMALY   = 74.2036

EPHEMERIS_TYPE = 0
CLASSIFICATION_TYPE = U
NORAD_CAT_ID   = 66515
ELEMENT_SET_NO = 999
REV_AT_EPOCH   = 1664
BSTAR          = .31267443E-3
MEAN_MOTION_DOT = .35117E-3
MEAN_MOTION_DDOT = 0

CCSDS_OMM_VERS = 2.0
CREATION_DATE  = 
ORIGINATOR     = 

OBJECT_NAME    = SHENZHOU-22
OBJECT_ID      = 2025-272A
CENTER_NAME    = EARTH
REF_FRAME      = TEME
TIME_SYSTEM    = UTC
MEAN_ELEMENT_THEORY = SGP/SGP4

EPOCH          = 2026-03-01T11:01:39.869472
MEAN_MOTION    = 15.60272448
ECCENTRICITY   = .0006488
INCLINATION    = 41.4651
RA_OF_ASC_NODE = 258.2248
ARG_OF_PERICENTER = 221.0416
MEAN_ANOMALY   = 138.9935

EPHEMERIS_TYPE = 0
CLASSIFICATION_TYPE = U
NORAD_CAT_ID   = 66645
ELEMENT_SET_NO = 999
REV_AT_EPOCH   = 26782
BSTAR          = .26741E-3
MEAN_MOTION_DOT = .22218E-3
MEAN_MOTION_DDOT = 0

CCSDS_OMM_VERS = 2.0
CREATION_DATE  = 
ORIGINATOR     = 

OBJECT_NAME    = SOYUZ-MS 28
OBJECT_ID      = 2025-275A
CENTER_NAME    = EARTH
REF_FRAME      = TEME
TIME_SYSTEM    = UTC
MEAN_ELEMENT_THEORY = SGP/SGP4

EPOCH          = 2026-03-01T10:42:24.882912
MEAN_MOTION    = 15.48380101
ECCENTRICITY   = .0008284
INCLINATION    = 51.6323
RA_OF_ASC_NODE = 113.1104
ARG_OF_PERICENTER = 145.6657
MEAN_ANOMALY   = 214.4868

EPHEMERIS_TYPE = 0
CLASSIFICATION_TYPE = U
NORAD_CAT_ID   = 66664
ELEMENT_SET_NO = 999
REV_AT_EPOCH   = 55482
BSTAR          = .18913E-3
MEAN_MOTION_DOT = .9769E-4
MEAN_MOTION_DDOT = 0

CCSDS_OMM_VERS = 2.0
CREATION_DATE  = 
ORIGINATOR     = 

OBJECT_NAME    = DUPLEX
OBJECT_ID      = 1998-067XS
CENTER_NAME    = EARTH
REF_FRAME      = TEME
TIME_SYSTEM    = UTC
MEAN_ELEMENT_THEORY = SGP/SGP4

EPOCH          = 2026-03-01T10:17:55.358016
MEAN_MOTION    = 15.55608097
ECCENTRICITY   = .000196
INCLINATION    = 51.6290
RA_OF_ASC_NODE = 110.7512
ARG_OF_PERICENTER = 85.3418
MEAN_ANOMALY   = 274.7797

EPHEMERIS_TYPE = 0
CLASSIFICATION_TYPE = U
NORAD_CAT_ID   = 66906
ELEMENT_SET_NO = 999
REV_AT_EPOCH   = 1384
BSTAR          = .48582E-3
MEAN_MOTION_DOT = .3361E-3
MEAN_MOTION_DDOT = 0

CCSDS_OMM_VERS = 2.0
CREATION_DATE  = 
ORIGINATOR     = 

OBJECT_NAME    = ISS OBJECT XT
OBJECT_ID      = 1998-067XT
CENTER_NAME    = EARTH
REF_FRAME      = TEME
TIME_SYSTEM    = UTC
MEAN_ELEMENT_THEORY = SGP/SGP4

EPOCH          = 2026-03-01T10:10:42.767904
MEAN_MOTION    = 15.66538666
ECCENTRICITY   = .0004392
INCLINATION    = 51.6255
RA_OF_ASC_NODE = 107.7079
ARG_OF_PERICENTER = 30.0220
MEAN_ANOMALY   = 330.1027

EPHEMERIS_TYPE = 0
CLASSIFICATION_TYPE = U
NORAD_CAT_ID   = 66907
ELEMENT_SET_NO = 999
REV_AT_EPOCH   = 1388
BSTAR          = .12738E-2
MEAN_MOTION_DOT = .137518E-2
MEAN_MOTION_DDOT = 0

CCSDS_OMM_VERS = 2.0
CREATION_DATE  = 
ORIGINATOR     = 

OBJECT_NAME    = ISS OBJECT XU
OBJECT_ID      = 1998-067XU
CENTER_NAME    = EARTH
REF_FRAME      = TEME
TIME_SYSTEM    = UTC
MEAN_ELEMENT_THEORY = SGP/SGP4

EPOCH          = 2026-03-01T10:08:52.779840
MEAN_MOTION    = 15.66615725
ECCENTRICITY   = .0004524
INCLINATION    = 51.6252
RA_OF_ASC_NODE = 107.6969
ARG_OF_PERICENTER = 32.6879
MEAN_ANOMALY   = 327.4396

EPHEMERIS_TYPE = 0
CLASSIFICATION_TYPE = U
NORAD_CAT_ID   = 66908
ELEMENT_SET_NO = 999
REV_AT_EPOCH   = 1388
BSTAR          = .12779E-2
MEAN_MOTION_DOT = .138414E-2
MEAN_MOTION_DDOT = 0

CCSDS_OMM_VERS = 2.0
CREATION_DATE  = 
ORIGINATOR     = 

OBJECT_NAME    = SILVERSAT
OBJECT_ID      = 1998-067XV
CENTER_NAME    = EARTH
REF_FRAME      = TEME
TIME_SYSTEM    = UTC
MEAN_ELEMENT_THEORY = SGP/SGP4

EPOCH          = 2026-03-01T08:58:18.295104
MEAN_MOTION    = 15.68880735
ECCENTRICITY   = .0005352
INCLINATION    = 51.6257
RA_OF_ASC_NODE = 107.3696
ARG_OF_PERICENTER = 28.2570
MEAN_ANOMALY   = 331.8716

EPHEMERIS_TYPE = 0
CLASSIFICATION_TYPE = U
NORAD_CAT_ID   = 66909
ELEMENT_SET_NO = 999
REV_AT_EPOCH   = 1388
BSTAR          = .142E-2
MEAN_MOTION_DOT = .169451E-2
MEAN_MOTION_DDOT = 0

