YOTSUBA-KULOVER         
1 65941U 98067XN  26060.34973822  .00181603  00000+0  10771-2 0  9993
2 65941  51.6222 100.4331 0006112  19.8048 340.3188 15.76940610 22186
BOTAN                   
1 65942U 98067XP  26060.32892748  .01991374  37933-2  17297-2 0  9992
2 65942  51.6093  93.3995 0006842  39.1940 320.9569 16.13419316 22278
E-KAGAKU-1              
1 65943U 98067XQ  26060.47942404  .00173992  00000+0  10418-2 0  9991
2 65943  51.6239  99.8138 0006310  28.4787 331.6556 15.76747517 22204
HRC MONOBLOCK CAMERA    
1 66052U 98067XR  26060.50959295  .00051704  00000+0  60088-3 0  9998
2 66052  51.6277 106.7869 0003276  57.4959 302.6350 15.61210914 21117
HTV-X1                  
1 66174U 25241A   26060.44612133  .00009769  00000+0  18913-3 0  9991
2 66174  51.6323 113.1104 0008284 145.6657 214.4868 15.48380101554775
SZ-21 MODULE            
1 66515U 25246C   26059.58432385  .00035117  00000+0  31267-3 0  9990
2 66515  41.4737 259.3806 0001436 285.8647  74.2036 15.67747367 16640
SHENZHOU-22             
1 66645U 25272A   26060.45948923  .00022218  00000+0  26741-3 0  9990
2 66645  41.4651 258.2248 0006488 221.0416 138.9935 15.60272448267825
SOYUZ-MS 28             
1 66664U 25275A   26060.44612133  .00009769  00000+0  18913-3 0  9992
2 66664  51.6323 113.1104 0008284 145.6657 214.4868 15.48380101554825
DUPLEX                  
1 66906U 98067XS  26060.42911294  .00033610  00000+0  48582-3 0  9995
2 66906  51.6290 110.7512 0001960  85.3418 274.7797 15.55608097 13849
ISS OBJECT XT           
1 66907U 98067XT  26060.42410611  .00137518  00000+0  12738-2 0  9998
2 66907  51.6255 107.7079 0004392  30.0220 330.1027 15.66538666 13888
ISS OBJECT XU           
1 66908U 98067XU  26060.42283310  .00138414  00000+0  12779-2 0  9994
2 66908  51.6252 107.6969 0004524  32.6879 327.4396 15.66615725 13888
SILVERSAT               
1 66909U 98067XV  26060.37382286  .00169451  00000+0  14200-2 0  9997
2 66909  51.6257 107.3696 0005352  28.2570 331.8716 15.68880735 13889
